ONEWEB-0229             
1 48779U 21045N   24358.06597113 -.00000084  00000+0 -25739-3 0  9993
2 48779  87.9061   6.9306 0001646  85.7361 274.3957 13.15550249174395
ONEWEB-0228             
1 48780U 21045P   24357.56606631  .00000172  00000+0  42200-3 0  9993
2 48780  87.9061   7.0088 0001606  89.4914 270.6400 13.15549051173117
ONEWEB-0232             
1 48781U 21045Q   24358.07390331 -.00000074  00000+0 -23005-3 0  9993
2 48781  87.9055   6.9126 0001699  89.8322 270.3003 13.15547741174628
ONEWEB-0231             
1 48782U 21045R   24357.59537168 -.00000114  00000+0 -33745-3 0  9998
2 48782  87.9072   7.0662 0001475  88.1213 272.0087 13.15549963173132
ONEWEB-0234             
1 48783U 21045S   24358.07151876 -.00000068  00000+0 -21478-3 0  9999
2 48783  87.9063   6.9163 0002658 114.4151 245.7256 13.15550383174465
ONEWEB-0238             
1 48784U 21045T   24358.10164338 -.00000403  00000+0 -11040-2 0  9997
2 48784  87.9017   6.9339 0001587 110.1812 249.9489 13.15534982174367
ONEWEB-0240             
1 48785U 21045U   24358.11113369  .00000149  00000+0  36292-3 0  9999
2 48785  87.9063   6.8914 0001343  97.3875 262.7408 13.15550623174388
ONEWEB-0246             
1 48786U 21045V   24358.10558477  .00000175  00000+0  43178-3 0  9992
2 48786  87.9066   6.8997 0001624  85.0527 275.0789 13.15550124174254
